start=new Date('2021-10-13T00:00:00.000Z').valueOf();
sats=[{"FILE":"3158851","MEAN_MOTION_DDOT":"0.0000000000000","ECCENTRICITY":"0.00016530","RCS_SIZE":"LARGE","PERIOD":"95.593","APOAPSIS":"548.378","SEMIMAJOR_AXIS":"6925.369","MEAN_MOTION":"15.06393459","COUNTRY_CODE":"US","TLE_LINE2":"2 47658  53.0545  95.7754 0001653  93.3940 266.7238 15.06393459 37452","PERIAPSIS":"546.089","CLASSIFICATION_TYPE":"U","REF_FRAME":"TEME","GP_ID":"186982042","ELEMENT_SET_NO":"999","LAUNCH_DATE":"2021-02-16","DECAY_DATE":null,"OBJECT_NAME":"STARLINK-2042","OBJECT_TYPE":"PAYLOAD","NORAD_CAT_ID":"47658","REV_AT_EPOCH":"3745","MEAN_ANOMALY":"266.7238","SITE":"AFETR","INCLINATION":"53.0545","OBJECT_ID":"2021-012AQ","CENTER_NAME":"EARTH","ARG_OF_PERICENTER":"93.3940","TIME_SYSTEM":"UTC","BSTAR":"-0.00001806200000","EPOCH":"2021-10-12T10:49:29.781696","EPHEMERIS_TYPE":"0","MEAN_MOTION_DOT":"-0.00000551","TLE_LINE1":"1 47658U 21012AQ  21285.45103914 -.00000551  00000-0 -18062-4 0  9995","RA_OF_ASC_NODE":"95.7754","MEAN_ELEMENT_THEORY":"SGP4"},{"CENTER_NAME":"EARTH","OBJECT_ID":"2021-012AR","INCLINATION":"53.0427","ARG_OF_PERICENTER":"331.7248","BSTAR":"0.00079095000000","EPOCH":"2021-10-13T00:00:00.999648","TIME_SYSTEM":"UTC","MEAN_ELEMENT_THEORY":"SGP4","RA_OF_ASC_NODE":"354.3279","TLE_LINE1":"1 47659U 21012AR  21286.00001157  .00112077  00000-0  79095-3 0  9991","MEAN_MOTION_DOT":"0.00112077","EPHEMERIS_TYPE":"0","NORAD_CAT_ID":"47659","OBJECT_TYPE":"PAYLOAD","SITE":"AFETR","REV_AT_EPOCH":"368","MEAN_ANOMALY":"0.9535","COUNTRY_CODE":"US","GP_ID":"187014903","REF_FRAME":"TEME","TLE_LINE2":"2 47659  53.0427 354.3279 0005281 331.7248   0.9535 15.73223182  3684","CLASSIFICATION_TYPE":"U","PERIAPSIS":"346.141","ELEMENT_SET_NO":"999","OBJECT_NAME":"STARLINK-2043","DECAY_DATE":null,"LAUNCH_DATE":"2021-02-16","FILE":"3159338","PERIOD":"91.532","RCS_SIZE":"LARGE","ECCENTRICITY":"0.00052810","MEAN_MOTION_DDOT":"0.0000000000000","APOAPSIS":"353.247","SEMIMAJOR_AXIS":"6727.829","MEAN_MOTION":"15.73223182"},{"DECAY_DATE":null,"LAUNCH_DATE":"2021-02-16","OBJECT_NAME":"STARLINK-2044","ELEMENT_SET_NO":"999","CLASSIFICATION_TYPE":"U","TLE_LINE2":"2 47660  53.0434 354.3306 0005059 330.0799   7.7955 15.73250099  3689","PERIAPSIS":"346.214","REF_FRAME":"TEME","GP_ID":"187014654","COUNTRY_CODE":"US","SEMIMAJOR_AXIS":"6727.752","MEAN_MOTION":"15.73250099","APOAPSIS":"353.021","ECCENTRICITY":"0.00050590","MEAN_MOTION_DDOT":"0.0000000000000","PERIOD":"91.530","RCS_SIZE":"MEDIUM","FILE":"3159338","MEAN_MOTION_DOT":"0.00043874","TLE_LINE1":"1 47660U 21012AS  21286.00001157  .00043874  00000-0  31449-3 0  9992","EPHEMERIS_TYPE":"0","MEAN_ELEMENT_THEORY":"SGP4","RA_OF_ASC_NODE":"354.3306","TIME_SYSTEM":"UTC","BSTAR":"0.00031449000000","EPOCH":"2021-10-13T00:00:00.999648","ARG_OF_PERICENTER":"330.0799","OBJECT_ID":"2021-012AS","INCLINATION":"53.0434","CENTER_NAME":"EARTH","REV_AT_EPOCH":"368","MEAN_ANOMALY":"7.7955","SITE":"AFETR","OBJECT_TYPE":"PAYLOAD","NORAD_CAT_ID":"47660"},{"BSTAR":"0.00002991700000","EPOCH":"2021-10-12T16:21:13.430016","TIME_SYSTEM":"UTC","RA_OF_ASC_NODE":"74.7233","MEAN_ELEMENT_THEORY":"SGP4","EPHEMERIS_TYPE":"0","TLE_LINE1":"1 47661U 21012AT  21285.68140544  .00000164  00000-0  29917-4 0  9993","MEAN_MOTION_DOT":"0.00000164","CENTER_NAME":"EARTH","INCLINATION":"53.0554","OBJECT_ID":"2021-012AT","ARG_OF_PERICENTER":"90.0612","SITE":"AFETR","MEAN_ANOMALY":"270.0589","REV_AT_EPOCH":"3773","NORAD_CAT_ID":"47661","OBJECT_TYPE":"PAYLOAD","ELEMENT_SET_NO":"999","OBJECT_NAME":"STARLINK-2051","LAUNCH_DATE":"2021-02-16","DECAY_DATE":null,"COUNTRY_CODE":"US","REF_FRAME":"TEME","GP_ID":"187015905","TLE_LINE2":"2 47661  53.0554  74.7233 0001852  90.0612 270.0589 15.06401709 37732","PERIAPSIS":"545.926","CLASSIFICATION_TYPE":"U","APOAPSIS":"548.491","SEMIMAJOR_AXIS":"6925.343","MEAN_MOTION":"15.06401709","FILE":"3159338","RCS_SIZE":"LARGE","PERIOD":"95.592","ECCENTRICITY":"0.00018520","MEAN_MOTION_DDOT":"0.0000000000000"},{"MEAN_ANOMALY":"274.9847","REV_AT_EPOCH":"3772","SITE":"AFETR","OBJECT_TYPE":"PAYLOAD","NORAD_CAT_ID":"47662","TIME_SYSTEM":"UTC","BSTAR":"0.00004969800000","EPOCH":"2021-10-12T11:06:42.662592","EPHEMERIS_TYPE":"0","TLE_LINE1":"1 47662U 21012AU  21285.46299378  .00000459  00000-0  49698-4 0  9995","MEAN_MOTION_DOT":"0.00000459","RA_OF_ASC_NODE":"75.7184","MEAN_ELEMENT_THEORY":"SGP4","INCLINATION":"53.0555","OBJECT_ID":"2021-012AU","CENTER_NAME":"EARTH","ARG_OF_PERICENTER":"85.1352","APOAPSIS":"548.471","SEMIMAJOR_AXIS":"6925.332","MEAN_MOTION":"15.06405360","FILE":"3158851","MEAN_MOTION_DDOT":"0.0000000000000","ECCENTRICITY":"0.00018390","RCS_SIZE":"LARGE","PERIOD":"95.592","ELEMENT_SET_NO":"999","LAUNCH_DATE":"2021-02-16","DECAY_DATE":null,"OBJECT_NAME":"STARLINK-2052","COUNTRY_CODE":"US","TLE_LINE2":"2 47662  53.0555  75.7184 0001839  85.1352 274.9847 15.06405360 37727","PERIAPSIS":"545.924","CLASSIFICATION_TYPE":"U","GP_ID":"186981543","REF_FRAME":"TEME"},{"ELEMENT_SET_NO":"999","LAUNCH_DATE":"2021-02-16","DECAY_DATE":null,"OBJECT_NAME":"STARLINK-2053","COUNTRY_CODE":"US","PERIAPSIS":"428.873","TLE_LINE2":"2 47663  53.0419 355.5992 0001846  30.0410  72.2357 15.45425471  3686","CLASSIFICATION_TYPE":"U","GP_ID":"187014404","REF_FRAME":"TEME","APOAPSIS":"431.387","MEAN_MOTION":"15.45425471","SEMIMAJOR_AXIS":"6808.265","FILE":"3159338","MEAN_MOTION_DDOT":"0.0000000000000","ECCENTRICITY":"0.00018460","RCS_SIZE":"LARGE","PERIOD":"93.178","TIME_SYSTEM":"UTC","BSTAR":"-0.02449700000000","EPOCH":"2021-10-13T00:00:00.999648","EPHEMERIS_TYPE":"0","TLE_LINE1":"1 47663U 21012AV  21286.00001157 -.01078073  00000-0 -24497-1 0  9990","MEAN_MOTION_DOT":"-0.01078073","RA_OF_ASC_NODE":"355.5992","MEAN_ELEMENT_THEORY":"SGP4","INCLINATION":"53.0419","OBJECT_ID":"2021-012AV","CENTER_NAME":"EARTH","ARG_OF_PERICENTER":"30.0410","REV_AT_EPOCH":"368","MEAN_ANOMALY":"72.2357","SITE":"AFETR","OBJECT_TYPE":"PAYLOAD","NORAD_CAT_ID":"47663"},{"NORAD_CAT_ID":"47664","OBJECT_TYPE":"PAYLOAD","SITE":"AFETR","REV_AT_EPOCH":"3720","MEAN_ANOMALY":"264.3989","ARG_OF_PERICENTER":"95.7219","CENTER_NAME":"EARTH","OBJECT_ID":"2021-012AW","INCLINATION":"53.0567","MEAN_ELEMENT_THEORY":"SGP4","RA_OF_ASC_NODE":"75.7214","TLE_LINE1":"1 47664U 21012AW  21285.46393760  .00000160  00000-0  29674-4 0  9998","MEAN_MOTION_DOT":"0.00000160","EPHEMERIS_TYPE":"0","BSTAR":"0.00002967400000","EPOCH":"2021-10-12T11:08:04.208640","TIME_SYSTEM":"UTC","PERIOD":"95.592","RCS_SIZE":"LARGE","MEAN_MOTION_DDOT":"0.0000000000000","ECCENTRICITY":"0.00019230","FILE":"3158980","SEMIMAJOR_AXIS":"6925.335","MEAN_MOTION":"15.06404379","APOAPSIS":"548.532","REF_FRAME":"TEME","GP_ID":"186985710","PERIAPSIS":"545.868","TLE_LINE2":"2 47664  53.0567  75.7214 0001923  95.7219 264.3989 15.06404379 37201","CLASSIFICATION_TYPE":"U","COUNTRY_CODE":"US","OBJECT_NAME":"STARLINK-2054","DECAY_DATE":null,"LAUNCH_DATE":"2021-02-16","ELEMENT_SET_NO":"999"},{"ELEMENT_SET_NO":"999","LAUNCH_DATE":"2021-02-16","DECAY_DATE":null,"OBJECT_NAME":"STARLINK-2056","COUNTRY_CODE":"US","PERIAPSIS":"544.501","TLE_LINE2":"2 47665  53.0537  69.6341 0003953 278.5841  81.4700 15.06391965 37822","CLASSIFICATION_TYPE":"U","REF_FRAME":"TEME","GP_ID":"187015406","APOAPSIS":"549.976","SEMIMAJOR_AXIS":"6925.373","MEAN_MOTION":"15.06391965","FILE":"3159338","MEAN_MOTION_DDOT":"0.0000000000000","ECCENTRICITY":"0.00039530","RCS_SIZE":"LARGE","PERIOD":"95.593","TIME_SYSTEM":"UTC","BSTAR":"-0.00000860550000","EPOCH":"2021-10-12T16:55:00.844896","EPHEMERIS_TYPE":"0","MEAN_MOTION_DOT":"-0.00000411","TLE_LINE1":"1 47665U 21012AX  21285.70487089 -.00000411  00000-0 -86055-5 0  9992","RA_OF_ASC_NODE":"69.6341","MEAN_ELEMENT_THEORY":"SGP4","INCLINATION":"53.0537","OBJECT_ID":"2021-012AX","CENTER_NAME":"EARTH","ARG_OF_PERICENTER":"278.5841","REV_AT_EPOCH":"3782","MEAN_ANOMALY":"81.4700","SITE":"AFETR","OBJECT_TYPE":"PAYLOAD","NORAD_CAT_ID":"47665"},{"TIME_SYSTEM":"UTC","BSTAR":"0.00016403000000","EPOCH":"2021-10-12T16:07:14.567232","EPHEMERIS_TYPE":"0","MEAN_MOTION_DOT":"0.00002163","TLE_LINE1":"1 47666U 21012AY  21285.67169638  .00002163  00000-0  16403-3 0  9998","RA_OF_ASC_NODE":"69.7714","MEAN_ELEMENT_THEORY":"SGP4","INCLINATION":"53.0560","OBJECT_ID":"2021-012AY","CENTER_NAME":"EARTH","ARG_OF_PERICENTER":"81.0190","REV_AT_EPOCH":"3782","MEAN_ANOMALY":"279.0987","SITE":"AFETR","OBJECT_TYPE":"PAYLOAD","NORAD_CAT_ID":"47666","ELEMENT_SET_NO":"999","LAUNCH_DATE":"2021-02-16","DECAY_DATE":null,"OBJECT_NAME":"STARLINK-2057","COUNTRY_CODE":"US","TLE_LINE2":"2 47666  53.0560  69.7714 0001655  81.0190 279.0987 15.06410813 37821","CLASSIFICATION_TYPE":"U","PERIAPSIS":"546.034","REF_FRAME":"TEME","GP_ID":"187016156","APOAPSIS":"548.327","SEMIMAJOR_AXIS":"6925.315","MEAN_MOTION":"15.06410813","FILE":"3159338","ECCENTRICITY":"0.00016550","MEAN_MOTION_DDOT":"0.0000000000000","RCS_SIZE":"MEDIUM","PERIOD":"95.591"},{"SITE":"AFETR","MEAN_ANOMALY":"259.1933","REV_AT_EPOCH":"3742","NORAD_CAT_ID":"47667","OBJECT_TYPE":"PAYLOAD","RA_OF_ASC_NODE":"95.5760","MEAN_ELEMENT_THEORY":"SGP4","EPHEMERIS_TYPE":"0","TLE_LINE1":"1 47667U 21012AZ  21285.49526833  .00000011  00000-0  19643-4 0  9993","MEAN_MOTION_DOT":"0.00000011","BSTAR":"0.00001964300000","EPOCH":"2021-10-12T11:53:11.183712","TIME_SYSTEM":"UTC","ARG_OF_PERICENTER":"100.9238","CENTER_NAME":"EARTH","INCLINATION":"53.0566","OBJECT_ID":"2021-012AZ","MEAN_MOTION":"15.06396062","SEMIMAJOR_AXIS":"6925.361","APOAPSIS":"548.346","RCS_SIZE":"LARGE","PERIOD":"95.592","ECCENTRICITY":"0.00016180","MEAN_MOTION_DDOT":"0.0000000000000","FILE":"3158851","OBJECT_NAME":"STARLINK-2058","LAUNCH_DATE":"2021-02-16","DECAY_DATE":null,"ELEMENT_SET_NO":"999","REF_FRAME":"TEME","GP_ID":"186982295","CLASSIFICATION_TYPE":"U","TLE_LINE2":"2 47667  53.0566  95.5760 0001618 100.9238 259.1933 15.06396062 37424","PERIAPSIS":"546.105","COUNTRY_CODE":"US"}];
